GPS BIIA-10 (PRN 32)    
1 20959U 90103A   16019.21564597  .00000071  00000-0  00000+0 0  9991
2 20959  54.2511 185.4931 0113094  11.1415 349.0941  2.00568315184178
GPS BIIR-2  (PRN 13)    
1 24876U 97035A   16019.03186215  .00000051  00000-0  00000+0 0  9999
2 24876  55.7105 247.4159 0044621 115.3031 245.2318  2.00562261135496
GPS BIIR-3  (PRN 11)    
1 25933U 99055A   16019.59137495 -.00000065  00000-0  00000+0 0  9991
2 25933  51.3008 100.2404 0160115  85.7154 242.6860  2.00565572119322
GPS BIIR-4  (PRN 20)    
1 26360U 00025A   16019.50870692  .00000048  00000-0  00000+0 0  9999
2 26360  53.0718 176.3544 0047522  74.8395 297.7835  2.00561397115011
GPS BIIR-5  (PRN 28)    
1 26407U 00040A   16019.31257260 -.00000063  00000-0  00000+0 0  9995
2 26407  56.6973   5.2095 0202349 266.5904 240.6971  2.00569799113685
GPS BIIR-6  (PRN 14)    
1 26605U 00071A   16019.55353074  .00000057  00000-0  00000+0 0  9997
2 26605  55.2799 245.3211 0085095 248.9194   7.8799  2.00558845111291
GPS BIIR-7  (PRN 18)    
1 26690U 01004A   16019.51003887  .00000053  00000-0  00000+0 0  9994
2 26690  53.0008 179.3337 0167402 250.3173  69.3310  2.00564808109695
GPS BIIR-8  (PRN 16)    
1 27663U 03005A   16019.22769321 -.00000062  00000-0  00000+0 0  9999
2 27663  56.7733   4.9208 0083664  16.6182 194.2108  2.00561843 95043
GPS BIIR-9  (PRN 21)    
1 27704U 03010A   16019.10648156 -.00000048  00000-0  00000+0 0  9994
2 27704  53.5982 119.6265 0232101 254.7251 188.6395  2.00561624 93849
GPS BIIR-10 (PRN 22)    
1 28129U 03058A   16019.14778636  .00000059  00000-0  00000+0 0  9990
2 28129  52.8773 179.3942 0077643 244.5282 114.6473  2.00396034 88554
GPS BIIR-11 (PRN 19)    
1 28190U 04009A   16019.30278376 -.00000051  00000-0  00000+0 0  9992
2 28190  55.6974  66.3553 0111197  37.5146  37.5175  2.00386718 86728
GPS BIIR-12 (PRN 23)    
1 28361U 04023A   16019.21262410  .00000061  00000-0  00000+0 0  9990
2 28361  54.2469 240.9737 0105352 211.1220  52.3791  2.00555318 84805
GPS BIIR-13 (PRN 02)    
1 28474U 04045A   16019.43131755 -.00000051  00000-0  00000+0 0  9990
2 28474  53.9905 118.8734 0154821 235.4818 189.0956  2.00559333 82178
GPS BIIRM-1 (PRN 17)    
1 28874U 05038A   16019.30218756 -.00000050  00000-0  00000+0 0  9999
2 28874  55.8651  63.5441 0111333 247.9393 190.2101  2.00569365 75577
GPS BIIRM-2 (PRN 31)    
1 29486U 06042A   16019.45576590 -.00000069  00000-0  00000+0 0  9994
2 29486  55.7305 302.8442 0084469 332.6901 138.2203  2.00563137 68295
GPS BIIRM-3 (PRN 12)    
1 29601U 06052A   16019.24327082 -.00000063  00000-0  00000+0 0  9995
2 29601  56.7436   3.8459 0056068  34.8327 325.5416  2.00579249 67201
GPS BIIRM-4 (PRN 15)    
1 32260U 07047A   16018.57070537  .00000062  00000-0  00000+0 0  9998
2 32260  53.3769 237.8022 0079058  25.4463 335.0065  2.00550007 60574
GPS BIIRM-5 (PRN 29)    
1 32384U 07062A   16019.61741049 -.00000049  00000-0  00000+0 0  9997
2 32384  55.9183  64.0811 0011415 316.4779 215.7820  2.00569074 59329
GPS BIIRM-6 (PRN 07)    
1 32711U 08012A   16018.97798185 -.00000068  00000-0  00000+0 0  9999
2 32711  55.4530 302.3604 0091317 207.8479 151.6876  2.00562956 57500
GPS BIIRM-8 (PRN 05)    
1 35752U 09043A   16019.51522918  .00000058  00000-0  00000+0 0  9990
2 35752  54.2257 180.3813 0044806  25.3645  32.2091  2.00558113 47092
GPS BIIF-1  (PRN 25)    
1 36585U 10022A   16019.58353954 -.00000070  00000-0  00000+0 0  9998
2 36585  56.0747   1.0032 0048492  37.5571 175.9163  2.00576022 41336
GPS BIIF-2  (PRN 01)    
1 37753U 11036A   16019.55156037 -.00000049  00000-0  00000+0 0  9998
2 37753  55.2099 121.3164 0048677  25.0050 249.2588  2.00565606 33025
GPS BIIF-3  (PRN 24)    
1 38833U 12053A   16019.16067811 -.00000066  00000-0  00000+0 0  9995
2 38833  54.4854 299.7784 0040544  16.4172 343.7419  2.00567486 24095
GPS BIIF-4  (PRN 27)    
1 39166U 13023A   16019.02000982 -.00000050  00000-0  00000+0 0  9997
2 39166  55.5749  60.7389 0030132   7.7893 352.3174  2.00568671 19615
GPS BIIF-5  (PRN 30)    
1 39533U 14008A   16019.01845827 -.00000072  00000-0  00000+0 0  9997
2 39533  54.6387 304.9935 0016516 183.8151 176.1948  2.00566371 13984
GPS BIIF-6  (PRN 06)    
1 39741U 14026A   16019.29497462 -.00000047  00000-0  00000+0 0  9998
2 39741  55.2011 120.8422 0004394 245.0882 114.8597  2.00569534 12268
GPS BIIF-7  (PRN 09)    
1 40105U 14045A   16018.89048234  .00000062  00000-0  00000+0 0  9995
2 40105  54.7647 240.6182 0003878 119.6772 240.4300  2.00565602 10704
GPS BIIF-8  (PRN 03)    
1 40294U 14068A   16019.25466672  .00000065  00000-0  00000+0 0  9993
2 40294  54.9635 180.9746 0003505 207.3867 152.5778  2.00550328  8934
GPS BIIF-9  (PRN 26)    
1 40534U 15013A   16018.89719492 -.00000068  00000-0  00000+0 0  9995
2 40534  55.0451   0.6464 0008055 331.3726  28.5900  2.00560981  5999
GPS BIIF-10  (PRN 08)   
1 40730U 15033A   16019.05684653 -.00000051  00000-0  00000+0 0  9996
2 40730  55.1118  60.6419 0019734 275.3629  84.4710  2.00568014  3756
GPS BIIF-11  (PRN 10)   
1 41019U 15062A   16018.61057595  .00000073  00000-0  00000+0 0  9992
2 41019  54.9781 180.7638 0010310 203.2523 156.6861  2.00562021  1569
